{"type": "FeatureCollection", "features": [ {"type": "Feature", "properties": {"norad_id": 35038, "name": "COSMOS 2251 DEB", "group": "cosmos-2251-debris", "lat": -35.642135207899706, "lon": 28.920062264241714, "alt_km": 774.069707578059, "timestamp": "2025-12-13T18:50:04.826301+00:00", "meta": {"OBJECT_NAME": "COSMOS 2251 DEB", "OBJECT_ID": "1993-036AHB", "EPOCH": "2025-12-13T03:59:42.751392", "MEAN_MOTION": 14.25152729, "ECCENTRICITY": 0.01138736, "INCLINATION": 74.1073, "RA_OF_ASC_NODE": 41.818, "ARG_OF_PERICENTER": 25.5338, "MEAN_ANOMALY": 7.3984, "EPHEMERIS_TYPE": 0, "CLASSIFICATION_TYPE": "U", "NORAD_CAT_ID": 35038, "ELEMENT_SET_NO": 999, "REV_AT_EPOCH": 85575, "BSTAR": 0.0018107074, "MEAN_MOTION_DOT": 4.526e-05, "MEAN_MOTION_DDOT": 0}, "tle": {"line1": "1 35038U 93036AHB 25347.16646703  .00004526  00000+0  18107-2 0  9999", "line2": "2 35038  74.1073  41.8180 0113873  25.5338   7.3984 14.25152729855753"}}, "geometry": {"type": "Point", "coordinates": [28.920062264241714, -35.642135207899706]}}, {"type": "Feature", "properties": {"norad_id": 35043, "name": "COSMOS 2251 DEB", "group": "cosmos-2251-debris", "lat": -0.5870755742794423, "lon": 43.34827657545442, "alt_km": 660.4642246990807, "timestamp": "2025-12-13T18:50:04.826312+00:00", "meta": {"OBJECT_NAME": "COSMOS 2251 DEB", "OBJECT_ID": "1993-036AHG", "EPOCH": "2025-12-12T10:19:31.767456", "MEAN_MOTION": 14.76940501, "ECCENTRICITY": 0.00964725, "INCLINATION": 73.9505, "RA_OF_ASC_NODE": 46.1859, "ARG_OF_PERICENTER": 255.5688, "MEAN_ANOMALY": 103.4766, "EPHEMERIS_TYPE": 0, "CLASSIFICATION_TYPE": "U", "NORAD_CAT_ID": 35043, "ELEMENT_SET_NO": 999, "REV_AT_EPOCH": 67414, "BSTAR": 0.0053994821, "MEAN_MOTION_DOT": 0.00041249, "MEAN_MOTION_DDOT": 0}, "tle": {"line1": "1 35043U 93036AHG 25346.43022879  .00041249  00000+0  53995-2 0  9993", "line2": "2 35043  73.9505  46.1859 0096472 255.5688 103.4766 14.76940501674142"}}, "geometry": {"type": "Point", "coordinates": [43.34827657545442, -0.5870755742794423]}}, {"type": "Feature", "properties": {"norad_id": 35045, "name": "COSMOS 2251 DEB", "group": "cosmos-2251-debris", "lat": -68.49013649631551, "lon": -81.28169759041373, "alt_km": 791.8201999586408, "timestamp": "2025-12-13T18:50:04.826322+00:00", "meta": {"OBJECT_NAME": "COSMOS 2251 DEB", "OBJECT_ID": "1993-036AHJ", "EPOCH": "2025-12-12T12:27:23.258016", "MEAN_MOTION": 14.00384321, "ECCENTRICITY": 0.01836, "INCLINATION": 73.7196, "RA_OF_ASC_NODE": 53.0934, "ARG_OF_PERICENTER": 295.1287, "MEAN_ANOMALY": 63.0895, "EPHEMERIS_TYPE": 0, "CLASSIFICATION_TYPE": "U", "NORAD_CAT_ID": 35045, "ELEMENT_SET_NO": 999, "REV_AT_EPOCH": 84640, "BSTAR": 0.00096523988, "MEAN_MOTION_DOT": 1.627e-05, "MEAN_MOTION_DDOT": 0}, "tle": {"line1": "1 35045U 93036AHJ 25346.51901919  .00001627  00000+0  96524-3 0  9997", "line2": "2 35045  73.7196  53.0934 0183600 295.1287  63.0895 14.00384321846407"}}, "geometry": {"type": "Point", "coordinates": [-81.28169759041373, -68.49013649631551]}}, {"type": "Feature", "properties": {"norad_id": 35060, "name": "COSMOS 2251 DEB", "group": "cosmos-2251-debris", "lat": -39.4316196713754, "lon": -131.22099900621546, "alt_km": 746.3020075515105, "timestamp": "2025-12-13T18:50:04.826333+00:00", "meta": {"OBJECT_NAME": "COSMOS 2251 DEB", "OBJECT_ID": "1993-036AHP", "EPOCH": "2025-12-12T09:42:56.373696", "MEAN_MOTION": 14.4159863, "ECCENTRICITY": 0.00185395, "INCLINATION": 74.0367, "RA_OF_ASC_NODE": 244.9485, "ARG_OF_PERICENTER": 331.3845, "MEAN_ANOMALY": 28.6291, "EPHEMERIS_TYPE": 0, "CLASSIFICATION_TYPE": "U", "NORAD_CAT_ID": 35060, "ELEMENT_SET_NO": 999, "REV_AT_EPOCH": 87237, "BSTAR": 0.00047553365, "MEAN_MOTION_DOT": 1.524e-05, "MEAN_MOTION_DDOT": 0}, "tle": {"line1": "1 35060U 93036AHP 25346.40481914  .00001524  00000+0  47553-3 0  9994", "line2": "2 35060  74.0367 244.9485 0018539 331.3845  28.6291 14.41598630872378"}}, "geometry": {"type": "Point", "coordinates": [-131.22099900621546, -39.4316196713754]}}, {"type": "Feature", "properties": {"norad_id": 35061, "name": "COSMOS 2251 DEB", "group": "cosmos-2251-debris", "lat": -55.440333983524305, "lon": -80.83213717701271, "alt_km": 685.4148015154551, "timestamp": "2025-12-13T18:50:04.826343+00:00", "meta": {"OBJECT_NAME": "COSMOS 2251 DEB", "OBJECT_ID": "1993-036AHQ", "EPOCH": "2025-12-12T15:17:41.757504", "MEAN_MOTION": 14.67826183, "ECCENTRICITY": 0.00390968, "INCLINATION": 74.0459, "RA_OF_ASC_NODE": 305.9213, "ARG_OF_PERICENTER": 56.8247, "MEAN_ANOMALY": 303.6662, "EPHEMERIS_TYPE": 0, "CLASSIFICATION_TYPE": "U", "NORAD_CAT_ID": 35061, "ELEMENT_SET_NO": 999, "REV_AT_EPOCH": 88573, "BSTAR": 0.0012039326, "MEAN_MOTION_DOT": 6.928e-05, "MEAN_MOTION_DDOT": 0}, "tle": {"line1": "1 35061U 93036AHQ 25346.63728886  .00006928  00000+0  12039-2 0  9995", "line2": "2 35061  74.0459 305.9213 0039096  56.8247 303.6662 14.67826183885731"}}, "geometry": {"type": "Point", "coordinates": [-80.83213717701271, -55.440333983524305]}}, {"type": "Feature", "properties": {"norad_id": 35062, "name": "COSMOS 2251 DEB", "group": "cosmos-2251-debris", "lat": -10.313142243869605, "lon": -85.64891923421611, "alt_km": 833.5523395042119, "timestamp": "2025-12-13T18:50:04.826353+00:00", "meta": {"OBJECT_NAME": "COSMOS 2251 DEB", "OBJECT_ID": "1993-036AHR", "EPOCH": "2025-12-10T15:42:45.436320", "MEAN_MOTION": 14.22906612, "ECCENTRICITY": 0.01275957, "INCLINATION": 74.0784, "RA_OF_ASC_NODE": 96.9836, "ARG_OF_PERICENTER": 97.3041, "MEAN_ANOMALY": 264.2628, "EPHEMERIS_TYPE": 0, "CLASSIFICATION_TYPE": "U", "NORAD_CAT_ID": 35062, "ELEMENT_SET_NO": 999, "REV_AT_EPOCH": 85469, "BSTAR": 0.0028656551, "MEAN_MOTION_DOT": 6.986e-05, "MEAN_MOTION_DDOT": 0}, "tle": {"line1": "1 35062U 93036AHR 25344.65469255  .00006986  00000+0  28657-2 0  9995", "line2": "2 35062  74.0784  96.9836 0127595  97.3041 264.2628 14.22906612854697"}}, "geometry": {"type": "Point", "coordinates": [-85.64891923421611, -10.313142243869605]}}, {"type": "Feature", "properties": {"norad_id": 35065, "name": "COSMOS 2251 DEB", "group": "cosmos-2251-debris", "lat": -36.43926057194858, "lon": -179.82568124919658, "alt_km": 731.6419577875185, "timestamp": "2025-12-13T18:50:04.826364+00:00", "meta": {"OBJECT_NAME": "COSMOS 2251 DEB", "OBJECT_ID": "1993-036AHU", "EPOCH": "2025-12-08T21:05:49.871616", "MEAN_MOTION": 14.4570853, "ECCENTRICITY": 0.0019714, "INCLINATION": 74.0196, "RA_OF_ASC_NODE": 201.5431, "ARG_OF_PERICENTER": 327.1177, "MEAN_ANOMALY": 32.8753, "EPHEMERIS_TYPE": 0, "CLASSIFICATION_TYPE": "U", "NORAD_CAT_ID": 35065, "ELEMENT_SET_NO": 999, "REV_AT_EPOCH": 68295, "BSTAR": 0.00050947, "MEAN_MOTION_DOT": 1.782e-05, "MEAN_MOTION_DDOT": 0}, "tle": {"line1": "1 35065U 93036AHU 25342.87904944  .00001782  00000+0  50947-3 0  9996", "line2": "2 35065  74.0196 201.5431 0019714 327.1177  32.8753 14.45708530682959"}}, "geometry": {"type": "Point", "coordinates": [-179.82568124919658, -36.43926057194858]}}, {"type": "Feature", "properties": {"norad_id": 35071, "name": "COSMOS 2251 DEB", "group": "cosmos-2251-debris", "lat": 36.380319362814696, "lon": -176.451577262657, "alt_km": 511.8084865647661, "timestamp": "2025-12-13T18:50:04.826374+00:00", "meta": {"OBJECT_NAME": "COSMOS 2251 DEB", "OBJECT_ID": "1993-036AJA", "EPOCH": "2025-12-13T05:53:29.406336", "MEAN_MOTION": 15.03475439, "ECCENTRICITY": 0.00684519, "INCLINATION": 73.9322, "RA_OF_ASC_NODE": 172.3972, "ARG_OF_PERICENTER": 68.7703, "MEAN_ANOMALY": 292.0779, "EPHEMERIS_TYPE": 0, "CLASSIFICATION_TYPE": "U", "NORAD_CAT_ID": 35071, "ELEMENT_SET_NO": 999, "REV_AT_EPOCH": 67544, "BSTAR": 0.0011748935, "MEAN_MOTION_DOT": 0.00016855, "MEAN_MOTION_DDOT": 0}, "tle": {"line1": "1 35071U 93036AJA 25347.24547924  .00016855  00000+0  11749-2 0  9993", "line2": "2 35071  73.9322 172.3972 0068451  68.7703 292.0779 15.03475439675443"}}, "geometry": {"type": "Point", "coordinates": [-176.451577262657, 36.380319362814696]}}, {"type": "Feature", "properties": {"norad_id": 35073, "name": "COSMOS 2251 DEB", "group": "cosmos-2251-debris", "lat": 42.118605255808525, "lon": 133.41251070962272, "alt_km": 557.6590706433226, "timestamp": "2025-12-13T18:50:04.826384+00:00", "meta": {"OBJECT_NAME": "COSMOS 2251 DEB", "OBJECT_ID": "1993-036AJC", "EPOCH": "2025-12-13T05:26:02.718240", "MEAN_MOTION": 15.00701135, "ECCENTRICITY": 0.00108653, "INCLINATION": 74.0021, "RA_OF_ASC_NODE": 329.5852, "ARG_OF_PERICENTER": 71.2745, "MEAN_ANOMALY": 288.962, "EPHEMERIS_TYPE": 0, "CLASSIFICATION_TYPE": "U", "NORAD_CAT_ID": 35073, "ELEMENT_SET_NO": 999, "REV_AT_EPOCH": 67486, "BSTAR": 0.0048254201, "MEAN_MOTION_DOT": 0.00061712, "MEAN_MOTION_DDOT": 0}, "tle": {"line1": "1 35073U 93036AJC 25347.22642035  .00061712  00000+0  48254-2 0  9995", "line2": "2 35073  74.0021 329.5852 0010865  71.2745 288.9620 15.00701135674863"}}, "geometry": {"type": "Point", "coordinates": [133.41251070962272, 42.118605255808525]}}, {"type": "Feature", "properties": {"norad_id": 35284, "name": "COSMOS 2251 DEB", "group": "cosmos-2251-debris", "lat": -11.266754722401224, "lon": -100.7665428373314, "alt_km": 756.1638411108115, "timestamp": "2025-12-13T18:50:04.826395+00:00", "meta": {"OBJECT_NAME": "COSMOS 2251 DEB", "OBJECT_ID": "1993-036AJN", "EPOCH": "2025-12-13T04:11:32.156736", "MEAN_MOTION": 14.38318715, "ECCENTRICITY": 0.00168243, "INCLINATION": 74.0492, "RA_OF_ASC_NODE": 263.6226, "ARG_OF_PERICENTER": 340.0757, "MEAN_ANOMALY": 90.4887, "EPHEMERIS_TYPE": 0, "CLASSIFICATION_TYPE": "U", "NORAD_CAT_ID": 35284, "ELEMENT_SET_NO": 999, "REV_AT_EPOCH": 65532, "BSTAR": 0.00026141859, "MEAN_MOTION_DOT": 7.71e-06, "MEAN_MOTION_DDOT": 0}, "tle": {"line1": "1 35284U 93036AJN 25347.17467774  .00000771  00000+0  26142-3 0  9999", "line2": "2 35284  74.0492 263.6226 0016824 340.0757  90.4887 14.38318715655322"}}, "geometry": {"type": "Point", "coordinates": [-100.7665428373314, -11.266754722401224]}}]}